{
  "norad_id": 54764,
  "name": "STARLINK-5458",
  "history": [
    {
      "epoch": "2026-03-28T22:09:03.079584Z",
      "apogee_km": 540.6364048646183,
      "perigee_km": 538.901394065033,
      "latitude_deg": -6.566662316071616e-05,
      "longitude_deg": 159.1109803319331,
      "height_km": 540.6567840237791,
      "semi_major_axis_km": 6917.905899464826,
      "eccentricity": 0.0001254,
      "inclination_deg": 53.2172,
      "raan_deg": 317.7103,
      "arg_perigee_deg": 89.4747,
      "mean_anomaly_deg": 270.6388,
      "mean_motion_rev_day": 15.08831654
    }
  ]
}